     2.100          NAVIGATION                              RINEX VERSION / TYPE
fic2rin                                 06/15/2016 00:07:53 PGM / RUN BY / DATE
                                                            END OF HEADER
28 16  6 14 15 59 44.0  .530128367245D-03  .272848410532D-11  .000000000000D+00
     .280000000000D+02 -.495937500000D+02  .393587823084D-08  .138122287035D+01
    -.294670462608D-05  .197294093668D-01  .747106969357D-05  .515363212776D+04
     .230384000000D+06 -.186264514923D-06  .172429768760D+01 -.473111867905D-06
     .989319469790D+00  .256250000000D+03 -.161608278166D+01 -.787782814316D-08
    -.172864343351D-09  .100000000000D+01  .190100000000D+04  .000000000000D+00
     .240000000000D+01  .000000000000D+00 -.111758708954D-07  .280000000000D+02
     .223206000000D+06  .400000000000D+01
 1 16  6 14 16  0  0.0  .236248597503D-04  .125055521494D-11  .000000000000D+00
     .970000000000D+02 -.161562500000D+02  .450875923649D-08 -.151251681140D+01
    -.806525349617D-06  .557031156495D-02  .555627048016D-05  .515363920975D+04
     .230400000000D+06  .540167093277D-07 -.253504643070D+01 -.143423676491D-06
     .964605015145D+00  .276000000000D+03  .471871582020D+00 -.802569144512D-08
     .571452374714D-10  .100000000000D+01  .190100000000D+04  .000000000000D+00
     .240000000000D+01  .000000000000D+00  .512227416039D-08  .970000000000D+02
     .223206000000D+06  .400000000000D+01
 2 16  6 14 16  0  0.0  .585448462516D-03 -.261479726760D-11  .000000000000D+00
     .480000000000D+02 -.106875000000D+02  .517521556850D-08 -.114911039672D+01
    -.409781932831D-06  .157684028381D-01  .545755028725D-05  .515357279015D+04
     .230400000000D+06  .257045030594D-06 -.258095595115D+01  .329688191414D-06
     .943409029161D+00  .265593750000D+03 -.210906037728D+01 -.848071039849D-08
    -.714315468392D-11  .100000000000D+01  .190100000000D+04  .000000000000D+00
     .240000000000D+01  .000000000000D+00 -.200234353542D-07  .480000000000D+02
     .223206000000D+06  .400000000000D+01
 3 16  6 14 16  0  0.0 -.672298483551D-04 -.341060513165D-11  .000000000000D+00
     .770000000000D+02 -.300000000000D+02  .440054044303D-08 -.503389736569D+00
    -.147335231304D-05  .228050164878D-03  .880286097527D-05  .515368341827D+04
     .230400000000D+06 -.186264514923D-07 -.149340691149D+01  .121071934700D-06
     .958904427155D+00  .209781250000D+03 -.167454508135D+01 -.790961518151D-08
    -.146791828755D-09  .100000000000D+01  .190100000000D+04  .000000000000D+00
     .240000000000D+01  .000000000000D+00  .186264514923D-08  .770000000000D+02
     .223206000000D+06  .400000000000D+01
 4 16  6 14 16  0  0.0 -.257765408605D-03 -.454747350886D-12  .000000000000D+00
     .770000000000D+02 -.638437500000D+02  .539879631011D-08  .167034807764D+01
    -.327825546265D-05  .851351430174D-02  .764429569244D-05  .515365448952D+04
     .230400000000D+06 -.216066837311D-06  .167114613895D+01 -.260770320892D-07
     .983079028456D+00  .247156250000D+03  .896400519297D+00 -.794068790438D-08
    -.244295890190D-09  .100000000000D+01  .190100000000D+04  .000000000000D+00
     .485000000000D+01  .630000000000D+02 -.195577740669D-07  .770000000000D+02
     .223206000000D+06  .400000000000D+01
 5 16  6 14 16  0  0.0 -.112893059850D-03  .295585778076D-11  .000000000000D+00
     .980000000000D+02 -.235625000000D+02  .475805533496D-08  .134894499611D+01
    -.113807618618D-05  .464080076199D-02  .884011387825D-05  .515381199837D+04
     .230400000000D+06 -.465661287308D-07 -.150555118256D+01  .149011611938D-07
     .945968064944D+00  .202718750000D+03  .452409314881D+00 -.812212403335D-08
    -.289654922433D-09  .100000000000D+01  .190100000000D+04  .000000000000D+00
     .240000000000D+01  .000000000000D+00 -.107102096081D-07  .980000000000D+02
     .223206000000D+06  .400000000000D+01
 6 16  6 14 16  0  0.0  .204703304917D-03  .534328137292D-11  .000000000000D+00
     .700000000000D+02 -.157500000000D+02  .462233539597D-08 -.127120969869D+01
    -.832602381706D-06  .401696772315D-03  .569410622120D-05  .515370534897D+04
     .230400000000D+06  .372529029846D-07 -.254347394480D+01  .186264514923D-07
     .964436353857D+00  .272531250000D+03 -.134018379478D+01 -.815391107170D-08
     .435732435719D-10  .100000000000D+01  .190100000000D+04  .000000000000D+00
     .240000000000D+01  .000000000000D+00  .419095158577D-08  .700000000000D+02
     .223206000000D+06  .400000000000D+01
 7 16  6 14 16  0  0.0  .448478385806D-03 -.238742359215D-11  .000000000000D+00
     .910000000000D+02  .262187500000D+02  .468590947265D-08 -.223517348173D+01
     .109151005745D-05  .957724777982D-02  .424683094025D-05  .515364443970D+04
     .230400000000D+06  .137835741043D-06  .623728707753D+00 -.191852450371D-06
     .966358457051D+00  .302343750000D+03 -.267219343970D+01 -.821141346690D-08
     .147863301957D-09  .100000000000D+01  .190100000000D+04  .000000000000D+00
     .240000000000D+01  .000000000000D+00 -.111758708954D-07  .910000000000D+02
     .223206000000D+06  .400000000000D+01
 8 16  6 14 16  0  0.0 -.390047207475D-04 -.147792889038D-11  .000000000000D+00
     .980000000000D+02 -.112812500000D+02  .439554023475D-08  .145523851422D+01
    -.683590769768D-06  .172586983535D-02  .853836536407D-05  .515370582008D+04
     .230400000000D+06 -.167638063431D-07  .268796320213D+01 -.800937414169D-07
     .963697907920D+00  .211906250000D+03 -.107623683105D+01 -.796461747257D-08
     .828605943335D-10  .100000000000D+01  .190100000000D+04  .000000000000D+00
     .240000000000D+01  .000000000000D+00  .465661287308D-08  .980000000000D+02
     .223206000000D+06  .400000000000D+01
 9 16  6 14 16  0  0.0  .148534774780D-03  .727595761418D-11  .000000000000D+00
     .780000000000D+02  .595937500000D+02  .449733018900D-08  .228267112996D+00
     .311248004436D-05  .538428779691D-03  .859051942825D-05  .515356657982D+04
     .230400000000D+06 -.316649675369D-07 -.454070143833D+00  .111758708954D-07
     .955157433135D+00  .206625000000D+03  .232161198455D+01 -.805033532878D-08
     .195008122871D-09  .100000000000D+01  .190100000000D+04  .000000000000D+00
     .240000000000D+01  .000000000000D+00  .139698386192D-08  .780000000000D+02
     .223206000000D+06  .400000000000D+01
10 16  6 14 16  0  0.0 -.453023239970D-04 -.818545231596D-11  .000000000000D+00
     .670000000000D+02 -.294687500000D+02  .447411493627D-08  .241758017273D+01
    -.143423676491D-05  .155394524336D-02  .912137329578D-05  .515368223381D+04
     .230400000000D+06 -.558793544769D-08 -.149740108746D+01 -.391155481339D-07
     .959139632198D+00  .200843750000D+03 -.270828883524D+01 -.798247535928D-08
    -.252510518077D-09  .100000000000D+01  .190100000000D+04  .000000000000D+00
     .240000000000D+01  .000000000000D+00  .232830643654D-08  .670000000000D+02
     .223206000000D+06  .400000000000D+01
11 16  6 14 16  0  0.0 -.651038717479D-03 -.272848410532D-11  .000000000000D+00
     .102000000000D+03  .114375000000D+02  .591096050095D-08 -.211832998360D+01
     .720843672752D-06  .164601330180D-01  .525079667568D-05  .515366504288D+04
     .230400000000D+06  .283122062683D-06 -.291322353571D+01  .126659870148D-06
     .897129093462D+00  .241718750000D+03  .153132253700D+01 -.853678416275D-08
     .189293599124D-09  .100000000000D+01  .190100000000D+04  .000000000000D+00
     .485000000000D+01  .000000000000D+00 -.121071934700D-07  .102000000000D+03
     .223206000000D+06  .400000000000D+01
12 16  6 14 16  0  0.0  .382720958441D-03  .102318153949D-11  .000000000000D+00
     .460000000000D+02 -.502187500000D+02  .388944772540D-08 -.281173710789D+01
    -.262074172497D-05  .614339637104D-02  .789761543274D-05  .515372090149D+04
     .230400000000D+06  .596046447754D-07  .170057930315D+01 -.206753611565D-06
     .990095730696D+00  .238062500000D+03  .764662316352D+00 -.776889503423D-08
    -.244295890190D-09  .100000000000D+01  .190100000000D+04  .000000000000D+00
     .240000000000D+01  .000000000000D+00 -.125728547573D-07  .460000000000D+02
     .223206000000D+06  .400000000000D+01
13 16  6 14 16  0  0.0 -.246870331466D-04 -.250111042988D-11  .000000000000D+00
     .480000000000D+02  .742812500000D+02  .422803325741D-08 -.130914584894D+01
     .387243926525D-05  .427680008579D-02  .863522291183D-05  .515368589973D+04
     .230400000000D+06 -.353902578354D-07 -.333129484683D+00  .353902578354D-07
     .971605794984D+00  .223156250000D+03  .200166284463D+01 -.794747390133D-08
     .249296098469D-09  .100000000000D+01  .190100000000D+04  .000000000000D+00
     .240000000000D+01  .000000000000D+00 -.111758708954D-07  .480000000000D+02
     .223206000000D+06  .400000000000D+01
14 16  6 14 16  0  0.0 -.193296000361D-04 -.204636307899D-11  .000000000000D+00
     .150000000000D+02  .713125000000D+02  .440125475850D-08  .347536038602D+00
     .355020165443D-05  .874365924392D-02  .910833477974D-05  .515402899551D+04
     .230400000000D+06 -.121071934700D-06 -.370271124124D+00  .316649675369D-07
     .964075042350D+00  .206250000000D+03 -.196291119801D+01 -.810105172704D-08
     .193579491934D-09  .100000000000D+01  .190100000000D+04  .000000000000D+00
     .240000000000D+01  .000000000000D+00 -.931322574615D-08  .150000000000D+02
     .223206000000D+06  .400000000000D+01
15 16  6 14 16  0  0.0 -.315257348120D-03 -.159161572810D-11  .000000000000D+00
     .390000000000D+02  .657187500000D+02  .511092717635D-08 -.211248635879D+00
     .357441604137D-05  .816141546238D-02  .891089439392D-05  .515361283112D+04
     .230400000000D+06  .115483999252D-06 -.507045602496D+00  .782310962677D-07
     .930838718312D+00  .191843750000D+03  .482545494608D+00 -.845463788389D-08
     .188222125921D-09  .100000000000D+01  .190100000000D+04  .000000000000D+00
     .240000000000D+01  .000000000000D+00 -.107102096081D-07  .390000000000D+02
     .223206000000D+06  .400000000000D+01
